ONEWEB-0228             
1 48780U 21045P   24219.21759421  .00031473  00000+0  83539-1 0  9994
2 48780  87.9019  34.4874 0001184  91.4233 268.7033 13.15337752156052
